KESTREL EYE IIM (KE2M)  
1 42982U 98067NE  20349.94915649  .00032814  00000-0  19612-3 0  9990
2 42982  51.6365  76.0137 0002997  59.5007 300.6289 15.77548334179484
DELLINGR (RBLE)         
1 43021U 98067NJ  20349.96491283  .00039052  00000-0  21685-3 0  9994
2 43021  51.6329  73.1836 0002695   0.6806 359.4198 15.79106352175290
UBAKUSAT                
1 43467U 98067NQ  20349.47332468  .00404244  87755-4  52945-3 0  9991
2 43467  51.6272  64.2462 0007716   7.2485 352.8638 16.06282404148630
TEMPEST-D               
1 43547U 98067NV  20350.06503116  .00057711  00000-0  49209-3 0  9993
2 43547  51.6345 117.5411 0004851   2.2800 357.8218 15.68950401137799
RAINCUBE                
1 43548U 98067NW  20350.14602321  .00604213  19910-3  65260-3 0  9994
2 43548  51.6234  69.4246 0009050   5.9775 354.1345 16.09257585138886
HALOSAT                 
1 43549U 98067NX  20349.96663050  .00296825  47511-4  60795-3 0  9992
2 43549  51.6319  74.4740 0006431   6.1478 353.9609 15.98818763138360
EQUISAT                 
1 43552U 98067PA  20349.65179889  .00445579  10529-3  57506-3 0  9990
2 43552  51.6236  71.5158 0008231   9.5664 350.5503 16.06499695138744
RADSAT-G                
1 43553U 98067PB  20349.79228760  .00055893  00000-0  28447-3 0  9997
2 43553  51.6372  91.8043 0004106  26.5033 333.6178 15.80857474138542
AEROCUBE 12A            
1 43556U 18046C   20349.37333196  .00002305  00000-0  88804-4 0  9997
2 43556  51.6414 320.6671 0007409 216.2685 143.7795 15.30624872134924
AEROCUBE 12B            
1 43557U 18046D   20349.34157361  .00003426  00000-0  12763-3 0  9998
2 43557  51.6414 321.9357 0007704 215.7886 144.2579 15.30212479134859
LEMUR-2-VU              
1 43558U 18046E   20350.14980530  .00004366  00000-0  14966-3 0  9992
2 43558  51.6417 311.7369 0006484 223.3514 136.6958 15.32263326135104
LEMUR-2-ALEXANDER       
1 43559U 18046F   20349.37916485  .00005865  00000-0  19596-3 0  9993
2 43559  51.6414 314.8591 0006564 220.3021 139.7475 15.32431521134776
LEMUR-2-YUASA           
1 43560U 18046G   20349.32871391  .00005773  00000-0  19448-3 0  9990
2 43560  51.6410 315.9999 0006713 234.4200 125.6156 15.32193877134970
LEMUR-2-TOMHENDERSON    
1 43561U 18046H   20349.76303782  .00004308  00000-0  14947-3 0  9995
2 43561  51.6420 314.3901 0006838 235.7321 124.3013 15.31901939134595
SIRIUSSAT-1             
1 43595U 98067PG  20344.55055662  .07916525  12514-4  56251-3 0  9997
2 43595  51.6588  97.6693 0009437  42.2825  52.9592 16.39998780132780
SIRIUSSAT-2             
1 43596U 98067PH  20344.36554324  .08904132  12494-4  57179-3 0  9995
2 43596  51.6062  99.6513 0006261 312.7483  99.6145 16.40921535132742
1998-067PN              
1 43638U 98067PN  20349.57003436  .00026630  00000-0  22036-3 0  9993
2 43638  51.6342 117.1946 0001950 343.2802  16.8130 15.70064441124911
1998-067PP              
1 43639U 98067PP  20349.56330847  .00067821  00000-0  32436-3 0  9994
2 43639  51.6309  99.0258 0004264 347.6744  12.4154 15.82124404125157
STARS-ME                
1 43640U 98067PQ  20349.60210920  .00036913  00000-0  26394-3 0  9994
2 43640  51.6322 110.5686 0003739 345.1163  14.9725 15.73361269125009
ISS DEB (SEDA-AP)       
1 43870U 98067PU  20349.79155968  .00006932  00000-0  91402-4 0  9990
2 43870  51.6350 141.2923 0003734   5.9395 354.1641 15.59670844112775
CATSAT-2                
1 44029U 98067PV  20350.06860100  .00057372  00000-0  36253-3 0  9996
2 44029  51.6389 115.3798 0001868  23.7137 336.3949 15.76029780106888
DELPHINI                
1 44030U 98067PW  20350.15225767  .00084846  00000-0  45216-3 0  9997
2 44030  51.6312 111.1971 0002880 352.5723   7.5235 15.79689737106918
UNITE                   
1 44031U 98067PX  20349.77227248  .00022885  00000-0  21860-3 0  9994
2 44031  51.6362 130.6441 0001986  25.9785 334.1310 15.66633016106623
CATSAT-1                
1 44033U 98067PZ  20350.06839112  .00056810  00000-0  35943-3 0  9991
2 44033  51.6389 115.3884 0001911  22.7688 337.3396 15.76004858106794
ISS DEB                 
1 44303U 98067QA  20349.78865894  .00007374  00000-0  10931-3 0  9995
2 44303  51.6382 158.6591 0004715 275.2361  84.8092 15.56373426 87827
ISS DEB                 
1 44304U 98067QB  20349.58274135  .00074930  00000-0  49906-3 0  9992
2 44304  51.6338 136.1961 0005316 271.5802  88.4588 15.74699330 88116
ISS DEB                 
1 44305U 98067QC  20349.56292606  .00193792  00000-0  72732-3 0  9995
2 44305  51.6249 126.0172 0006330 310.1970  49.8480 15.86741255 88246
ISS DEB                 
1 44306U 98067QD  20349.21861875  .00008724  00000-0  12702-3 0  9999
2 44306  51.6368 161.5237 0005902 269.4883  90.5432 15.56587461 87746
RAAVANA-1               
1 44329U 98067QE  20348.75828598  .00028123  00000-0  30163-3 0  9993
2 44329  51.6355 152.4670 0004694 303.1751  56.8793 15.63570481 84995
